{
"type": "FeatureCollection",
"name": "anbennar_eu5extents",
"crs": { "type": "name", "properties": { "name": "urn:ogc:def:crs:EPSG::3857" } },
"features": [
{ "type": "Feature", "properties": { "MINX": -20037508.342789244, "MINY": -8718829.5894948449, "MAXX": 20037508.342789244, "MAXY": 11318678.753294399, "CNTX": 0.0, "CNTY": 1299924.5818997771, "AREA": 803003481174697.12, "PERIM": 120225050.05673546, "HEIGHT": 20037508.342789244, "WIDTH": 40075016.685578488 }, "geometry": { "type": "Polygon", "coordinates": [ [ [ -20037508.342789243906736, -8718829.589494844898582 ], [ 20037508.342789243906736, -8718829.589494844898582 ], [ 20037508.342789243906736, 11318678.753294399008155 ], [ -20037508.342789243906736, 11318678.753294399008155 ], [ -20037508.342789243906736, -8718829.589494844898582 ] ] ] } }
]
}
